NORAD_CAT_ID,OBJECT_NAME,OBJECT_TYPE,EPOCH,MEAN_MOTION,ECCENTRICITY,INCLINATION,RA_OF_ASC_NODE,ARG_OF_PERICENTER,MEAN_ANOMALY,BSTAR,MEAN_MOTION_DOT,MEAN_MOTION_DDOT,TLE_LINE0,TLE_LINE1,TLE_LINE2,SEMIMAJOR_AXIS,PERIOD,APOGEE,PERIGEE,DECAYED
52838.0,STARLINK-4092,PAYLOAD,2023-06-03 23:40:29,15.08839251,9.18e-05,53.2165,246.8378,120.6692,239.439,-6.5884e-06,-3.93e-06,0.0,0 STARLINK-4092,1 52838U 22062J   23154.98645403 -.00000393  00000-0 -65884-5 0  9995,2 52838  53.2165 246.8378 0000918 120.6692 239.4390 15.08839251 53844,6917.883,95.438,540.383,539.113,0.0
52838.0,STARLINK-4092,PAYLOAD,2023-06-04 12:23:35,15.08835727,0.0001048,53.2169,244.4658,86.9131,273.1981,1.6611e-05,-2.3e-07,0.0,0 STARLINK-4092,1 52838U 22062J   23155.51638011 -.00000023  00000-0  16611-4 0  9994,2 52838  53.2169 244.4658 0001048  86.9131 273.1981 15.08835727 53430,6917.893,95.438,540.483,539.033,0.0
52838.0,STARLINK-4092,PAYLOAD,2023-06-04 15:34:21,15.0883766,0.0001024,53.2169,243.8708,89.1129,270.998,2.5837e-05,1.23e-06,0.0,0 STARLINK-4092,1 52838U 22062J   23155.64885868  .00000123  00000-0  25837-4 0  9992,2 52838  53.2169 243.8708 0001024  89.1129 270.9980 15.08837660 53459,6917.888,95.438,540.461,539.044,0.0
52838.0,STARLINK-4092,PAYLOAD,2023-06-05 10:38:58,15.08850207,0.0001003,53.2169,240.3035,83.0323,277.0783,0.00015021,2.104e-05,0.0,0 STARLINK-4092,1 52838U 22062J   23156.44372712  .00002104  00000-0  15021-3 0  9994,2 52838  53.2169 240.3035 0001003  83.0323 277.0783 15.08850207 54069,6917.849,95.437,540.408,539.02,0.0
52838.0,STARLINK-4092,PAYLOAD,2023-06-05 12:14:20,15.08855271,8.98e-05,53.2171,240.006,82.0616,278.0478,0.00014952,2.094e-05,0.0,0 STARLINK-4092,1 52838U 22062J   23156.50996442  .00002094  00000-0  14952-3 0  9993,2 52838  53.2171 240.0060 0000898  82.0616 278.0478 15.08855271 53586,6917.834,95.437,540.32,539.077,0.0
52838.0,STARLINK-4092,PAYLOAD,2023-06-05 15:25:07,15.08852796,8.77e-05,53.217,239.411,99.9586,260.1505,0.00022855,3.353e-05,0.0,0 STARLINK-4092,1 52838U 22062J   23156.64244370  .00003353  00000-0  22855-3 0  9994,2 52838  53.2170 239.4110 0000877  99.9586 260.1505 15.08852796 53608,6917.841,95.437,540.313,539.1,0.0
52838.0,STARLINK-4092,PAYLOAD,2023-06-06 08:54:22,15.08840765,8.5e-05,53.2161,236.1402,76.124,283.9846,0.00015632,2.201e-05,0.0,0 STARLINK-4092,1 52838U 22062J   23157.37109508  .00002201  00000-0  15632-3 0  9994,2 52838  53.2161 236.1402 0000850  76.1240 283.9846 15.08840765 54202,6917.878,95.438,540.331,539.155,0.0
52838.0,STARLINK-4092,PAYLOAD,2023-06-06 10:29:45,15.0884055,0.0001017,53.2159,235.8423,80.8408,279.2699,0.00012585,1.716e-05,0.0,0 STARLINK-4092,1 52838U 22062J   23157.43733562  .00001716  00000-0  12585-3 0  9998,2 52838  53.2159 235.8423 0001017  80.8408 279.2699 15.08840550 53724,6917.879,95.438,540.447,539.04,0.0
52838.0,STARLINK-4092,PAYLOAD,2023-06-07 08:45:08,15.08864375,0.0001133,53.2151,231.6788,101.9003,258.2117,0.00031321,4.704e-05,0.0,0 STARLINK-4092,1 52838U 22062J   23158.36468333  .00004704  00000-0  31321-3 0  9991,2 52838  53.2151 231.6788 0001133 101.9003 258.2117 15.08864375 53867,6917.806,95.436,540.455,538.887,0.0
52838.0,STARLINK-4092,PAYLOAD,2023-06-07 21:28:13,15.08852269,0.0001115,53.2158,229.2999,71.0118,289.0995,8.2711e-05,1.029e-05,0.0,0 STARLINK-4092,1 52838U 22062J   23158.89459987  .00001029  00000-0  82711-4 0  9991,2 52838  53.2158 229.2999 0001115  71.0118 289.0995 15.08852269 53949,6917.843,95.437,540.479,538.937,0.0
52838.0,STARLINK-4092,PAYLOAD,2023-06-08 08:35:57,15.08829262,0.0001157,53.2162,227.2203,92.4741,267.6384,4.3339e-05,4.02e-06,0.0,0 STARLINK-4092,1 52838U 22062J   23159.35830182  .00000402  00000-0  43339-4 0  9990,2 52838  53.2162 227.2203 0001157  92.4741 267.6384 15.08829262 54509,6917.913,95.438,540.579,538.978,0.0
52838.0,STARLINK-4092,PAYLOAD,2023-06-08 11:46:43,15.08829844,0.0001199,53.2164,226.6262,95.4849,264.628,4.0928e-05,3.63e-06,0.0,0 STARLINK-4092,1 52838U 22062J   23159.49078191  .00000363  00000-0  40928-4 0  9996,2 52838  53.2164 226.6262 0001199  95.4849 264.6280 15.08829844 54033,6917.911,95.438,540.606,538.947,0.0
52838.0,STARLINK-4092,PAYLOAD,2023-06-09 03:40:34,15.08838134,0.0001246,53.2168,223.6527,97.0589,263.0545,8.5532e-05,1.074e-05,0.0,0 STARLINK-4092,1 52838U 22062J   23160.15317855  .00001074  00000-0  85532-4 0  9994,2 52838  53.2168 223.6527 0001246  97.0589 263.0545 15.08838134 54624,6917.886,95.438,540.613,538.889,0.0
52838.0,STARLINK-4092,PAYLOAD,2023-06-09 10:02:06,15.08852646,0.0001738,53.2166,222.4626,112.1795,247.9382,-0.00016456,-2.907e-05,0.0,0 STARLINK-4092,1 52838U 22062J   23160.41813519 -.00002907  00000-0 -16456-3 0  9997,2 52838  53.2166 222.4626 0001738 112.1795 247.9382 15.08852646 54177,6917.842,95.437,540.909,538.504,0.0
52838.0,STARLINK-4092,PAYLOAD,2023-06-09 11:37:29,15.08847209,0.0002364,53.2157,222.1657,117.0692,243.0541,-0.00026449,-4.496e-05,0.0,0 STARLINK-4092,1 52838U 22062J   23160.48437174 -.00004496  00000-0 -26449-3 0  9991,2 52838  53.2157 222.1657 0002364 117.0692 243.0541 15.08847209 54672,6917.858,95.437,541.359,538.088,0.0
52838.0,STARLINK-4092,PAYLOAD,2023-06-09 21:09:49,15.08833225,0.0001213,53.2152,220.3813,90.5761,269.5371,0.00018741,2.695e-05,0.0,0 STARLINK-4092,1 52838U 22062J   23160.88182014  .00002695  00000-0  18741-3 0  9998,2 52838  53.2152 220.3813 0001213  90.5761 269.5371 15.08833225 54245,6917.901,95.438,540.605,538.927,0.0
52838.0,STARLINK-4092,PAYLOAD,2023-06-10 03:31:21,15.08835296,0.0001207,53.2151,219.1917,90.7354,269.3777,0.00019508,2.818e-05,0.0,0 STARLINK-4092,1 52838U 22062J   23161.14678073  .00002818  00000-0  19508-3 0  9992,2 52838  53.2151 219.1917 0001207  90.7354 269.3777 15.08835296 54774,6917.895,95.438,540.595,538.925,0.0
52838.0,STARLINK-4092,PAYLOAD,2023-06-10 13:03:40,15.0883966,0.0001158,53.2148,217.4069,91.2361,268.8764,0.00018468,2.653e-05,0.0,0 STARLINK-4092,1 52838U 22062J   23161.54422008  .00002653  00000-0  18468-3 0  9992,2 52838  53.2148 217.4069 0001158  91.2361 268.8764 15.08839660 54340,6917.881,95.438,540.548,538.945,0.0
52838.0,STARLINK-4092,PAYLOAD,2023-06-10 21:00:36,15.08835145,0.0001124,53.2145,215.9196,89.5503,270.5618,9.3349e-05,1.198e-05,0.0,0 STARLINK-4092,1 52838U 22062J   23161.87542348  .00001198  00000-0  93349-4 0  9993,2 52838  53.2145 215.9196 0001124  89.5503 270.5618 15.08835145 54399,6917.895,95.438,540.538,538.983,0.0
52838.0,STARLINK-4092,PAYLOAD,2023-06-11 03:22:09,15.08832363,0.0001111,53.2144,214.7296,90.8855,269.2264,0.00019642,2.839e-05,0.0,0 STARLINK-4092,1 52838U 22062J   23162.14038611  .00002839  00000-0  19642-3 0  9993,2 52838  53.2144 214.7296 0001111  90.8855 269.2264 15.08832363 54927,6917.904,95.438,540.537,539.0,0.0
52838.0,STARLINK-4092,PAYLOAD,2023-06-11 12:54:27,15.08838915,0.0001115,53.2144,212.9455,89.7406,270.3714,0.00010723,1.419e-05,0.0,0 STARLINK-4092,1 52838U 22062J   23162.53782382  .00001419  00000-0  10723-3 0  9991,2 52838  53.2144 212.9455 0001115  89.7406 270.3714 15.08838915 54491,6917.884,95.438,540.52,538.977,0.0
52838.0,STARLINK-4092,PAYLOAD,2023-06-11 20:51:23,15.08842927,0.0001105,53.2148,211.459,88.342,271.7698,0.00016322,2.311e-05,0.0,0 STARLINK-4092,1 52838U 22062J   23162.86902227  .00002311  00000-0  16322-3 0  9992,2 52838  53.2148 211.4590 0001105  88.3420 271.7698 15.08842927 54549,6917.871,95.437,540.501,538.972,0.0
52838.0,STARLINK-4092,PAYLOAD,2023-06-12 09:34:28,15.08847582,0.0001118,53.2145,209.0797,88.3042,271.8079,0.00021318,3.107e-05,0.0,0 STARLINK-4092,1 52838U 22062J   23163.39893932  .00003107  00000-0  21318-3 0  9998,2 52838  53.2145 209.0797 0001118  88.3042 271.8079 15.08847582 54627,6917.857,95.437,540.496,538.949,0.0
52838.0,STARLINK-4092,PAYLOAD,2023-06-13 12:36:02,15.08831012,0.0001086,53.2152,204.0247,84.2234,275.8882,-4.994e-05,-1.082e-05,0.0,0 STARLINK-4092,1 52838U 22062J   23164.52503003 -.00001082  00000-0 -49940-4 0  9995,2 52838  53.2152 204.0247 0001086  84.2234 275.8882 15.08831012 55282,6917.908,95.438,540.524,539.022,0.0
52838.0,STARLINK-4092,PAYLOAD,2023-06-14 02:54:32,15.08822928,0.0001072,53.2168,201.3471,100.6011,259.5102,-0.00013223,-2.391e-05,0.0,0 STARLINK-4092,1 52838U 22062J   23165.12120532 -.00002391  00000-0 -13223-3 0  9992,2 52838  53.2168 201.3471 0001072 100.6011 259.5102 15.08822928 55379,6917.933,95.439,540.539,539.056,0.0
52838.0,STARLINK-4092,PAYLOAD,2023-06-14 18:48:23,15.08832282,0.0001155,53.2163,198.3771,89.1911,270.9213,5.098e-06,-2.07e-06,0.0,0 STARLINK-4092,1 52838U 22062J   23165.78360155 -.00000207  00000-0  50980-5 0  9997,2 52838  53.2163 198.3771 0001155  89.1911 270.9213 15.08832282 54984,6917.904,95.438,540.568,538.97,0.0
52838.0,STARLINK-4092,PAYLOAD,2023-06-15 07:31:28,15.0883131,9.85e-05,53.2162,195.9978,82.5655,277.5449,0.00013893,1.923e-05,0.0,0 STARLINK-4092,1 52838U 22062J   23166.31352491  .00001923  00000-0  13893-3 0  9996,2 52838  53.2162 195.9978 0000985  82.5655 277.5449 15.08831310 55062,6917.907,95.438,540.453,539.091,0.0
52838.0,STARLINK-4092,PAYLOAD,2023-06-16 02:36:06,15.08841169,0.0001045,53.2149,192.4283,77.0798,283.0311,0.000278,4.139e-05,0.0,0 STARLINK-4092,1 52838U 22062J   23167.10840765  .00004139  00000-0  27800-3 0  9995,2 52838  53.2149 192.4283 0001045  77.0798 283.0311 15.08841169 55673,6917.877,95.437,540.465,539.019,0.0
52838.0,STARLINK-4092,PAYLOAD,2023-06-16 08:57:38,15.08848109,0.000105,53.2149,191.2391,77.6772,282.4338,0.00037201,5.639e-05,0.0,0 STARLINK-4092,1 52838U 22062J   23167.37336554  .00005639  00000-0  37201-3 0  9992,2 52838  53.2149 191.2391 0001050  77.6772 282.4338 15.08848109 55228,6917.856,95.437,540.447,538.994,0.0
52838.0,STARLINK-4092,PAYLOAD,2023-06-16 18:29:57,15.08852472,0.0001044,53.2146,189.455,76.9019,283.2089,0.00034878,5.269e-05,0.0,0 STARLINK-4092,1 52838U 22062J   23167.77080218  .00005269  00000-0  34878-3 0  9995,2 52838  53.2146 189.4550 0001044  76.9019 283.2089 15.08852472 55286,6917.842,95.437,540.429,538.985,0.0
